[{"OBJECT_NAME":"STARLINK-4415","OBJECT_ID":"2022-099A","EPOCH":"2026-03-09T21:19:01.474464","MEAN_MOTION":15.05676635,"ECCENTRICITY":2.971e-5,"INCLINATION":97.6028,"RA_OF_ASC_NODE":191.4147,"ARG_OF_PERICENTER":207.4645,"MEAN_ANOMALY":152.6566,"EPHEMERIS_TYPE":0,"CLASSIFICATION_TYPE":"U","NORAD_CAT_ID":53465,"ELEMENT_SET_NO":999,"REV_AT_EPOCH":19606,"BSTAR":0.00068857013,"MEAN_MOTION_DOT":9.895e-5,"MEAN_MOTION_DDOT":0},{"OBJECT_NAME":"PEGASUS DEB","OBJECT_ID":"1994-029AFJ","EPOCH":"2026-03-03T19:03:50.475744","MEAN_MOTION":14.72508431,"ECCENTRICITY":0.0165055,"INCLINATION":81.9829,"RA_OF_ASC_NODE":93.0554,"ARG_OF_PERICENTER":318.1487,"MEAN_ANOMALY":40.7194,"EPHEMERIS_TYPE":0,"CLASSIFICATION_TYPE":"U","NORAD_CAT_ID":39323,"ELEMENT_SET_NO":999,"REV_AT_EPOCH":72598,"BSTAR":0.0010497,"MEAN_MOTION_DOT":8.298e-5,"MEAN_MOTION_DDOT":0}]
